{"type": "FeatureCollection", "features": [ {"type": "Feature", "properties": {"norad_id": 33492, "name": "GOSAT (IBUKI)", "group": "resource", "lat": 15.159080504554053, "lon": -79.60835243105238, "alt_km": 669.4828783647799, "timestamp": "2025-12-15T14:57:57.496862+00:00", "meta": {"OBJECT_NAME": "GOSAT (IBUKI)", "OBJECT_ID": "2009-002A", "EPOCH": "2025-12-14T21:51:18.293760", "MEAN_MOTION": 14.67558988, "ECCENTRICITY": 9.612e-05, "INCLINATION": 98.0771, "RA_OF_ASC_NODE": 97.4838, "ARG_OF_PERICENTER": 95.2176, "MEAN_ANOMALY": 264.9138, "EPHEMERIS_TYPE": 0, "CLASSIFICATION_TYPE": "U", "NORAD_CAT_ID": 33492, "ELEMENT_SET_NO": 999, "REV_AT_EPOCH": 90443, "BSTAR": 0.00017175476, "MEAN_MOTION_DOT": 9.26e-06, "MEAN_MOTION_DDOT": 0}, "tle": {"line1": "1 33492U 09002A   25348.91062840  .00000926  00000+0  17175-3 0  9994", "line2": "2 33492  98.0771  97.4838 0000961  95.2176 264.9138 14.67558988904434"}}, "geometry": {"type": "Point", "coordinates": [-79.60835243105238, 15.159080504554053]}}, {"type": "Feature", "properties": {"norad_id": 35681, "name": "DEIMOS-1", "group": "resource", "lat": -40.723818763721795, "lon": 156.793657261213, "alt_km": 652.6591645723556, "timestamp": "2025-12-15T14:57:57.496871+00:00", "meta": {"OBJECT_NAME": "DEIMOS-1", "OBJECT_ID": "2009-041A", "EPOCH": "2025-12-14T21:14:33.398592", "MEAN_MOTION": 14.74958653, "ECCENTRICITY": 0.00027201, "INCLINATION": 97.7147, "RA_OF_ASC_NODE": 149.3884, "ARG_OF_PERICENTER": 76.4838, "MEAN_ANOMALY": 283.6675, "EPHEMERIS_TYPE": 0, "CLASSIFICATION_TYPE": "U", "NORAD_CAT_ID": 35681, "ELEMENT_SET_NO": 999, "REV_AT_EPOCH": 87971, "BSTAR": 0.00019439256, "MEAN_MOTION_DOT": 1.259e-05, "MEAN_MOTION_DDOT": 0}, "tle": {"line1": "1 35681U 09041A   25348.88510878  .00001259  00000+0  19439-3 0  9999", "line2": "2 35681  97.7147 149.3884 0002720  76.4838 283.6675 14.74958653879715"}}, "geometry": {"type": "Point", "coordinates": [156.793657261213, -40.723818763721795]}}, {"type": "Feature", "properties": {"norad_id": 35682, "name": "DUBAISAT-1", "group": "resource", "lat": -68.74550668907686, "lon": -80.87507459652483, "alt_km": 649.7912088255689, "timestamp": "2025-12-15T14:57:57.496881+00:00", "meta": {"OBJECT_NAME": "DUBAISAT-1", "OBJECT_ID": "2009-041B", "EPOCH": "2025-12-14T21:32:55.028832", "MEAN_MOTION": 14.74611203, "ECCENTRICITY": 0.00094381, "INCLINATION": 97.9785, "RA_OF_ASC_NODE": 119.5456, "ARG_OF_PERICENTER": 306.9924, "MEAN_ANOMALY": 53.0421, "EPHEMERIS_TYPE": 0, "CLASSIFICATION_TYPE": "U", "NORAD_CAT_ID": 35682, "ELEMENT_SET_NO": 999, "REV_AT_EPOCH": 87793, "BSTAR": 0.00018701625, "MEAN_MOTION_DOT": 1.197e-05, "MEAN_MOTION_DDOT": 0}, "tle": {"line1": "1 35682U 09041B   25348.89785913  .00001197  00000+0  18702-3 0  9998", "line2": "2 35682  97.9785 119.5456 0009438 306.9924  53.0421 14.74611203877937"}}, "geometry": {"type": "Point", "coordinates": [-80.87507459652483, -68.74550668907686]}}, {"type": "Feature", "properties": {"norad_id": 35931, "name": "OCEANSAT-2", "group": "resource", "lat": 10.15621658874089, "lon": -11.55245723227639, "alt_km": 886.107777292751, "timestamp": "2025-12-15T14:57:57.496890+00:00", "meta": {"OBJECT_NAME": "OCEANSAT-2", "OBJECT_ID": "2009-051A", "EPOCH": "2025-12-14T23:28:33.115584", "MEAN_MOTION": 13.99624213, "ECCENTRICITY": 0.00161579, "INCLINATION": 98.2221, "RA_OF_ASC_NODE": 349.3518, "ARG_OF_PERICENTER": 39.1844, "MEAN_ANOMALY": 321.0489, "EPHEMERIS_TYPE": 0, "CLASSIFICATION_TYPE": "U", "NORAD_CAT_ID": 35931, "ELEMENT_SET_NO": 999, "REV_AT_EPOCH": 85356, "BSTAR": -5.9636733e-05, "MEAN_MOTION_DOT": -1.25e-06, "MEAN_MOTION_DDOT": 0}, "tle": {"line1": "1 35931U 09051A   25348.97816106 -.00000125  00000+0 -59637-4 0  9999", "line2": "2 35931  98.2221 349.3518 0016157  39.1844 321.0489 13.99624213853563"}}, "geometry": {"type": "Point", "coordinates": [-11.55245723227639, 10.15621658874089]}}, {"type": "Feature", "properties": {"norad_id": 35946, "name": "WORLDVIEW-2 (WV-2)", "group": "resource", "lat": 12.879480266775634, "lon": -117.37715850301939, "alt_km": 768.0147323390529, "timestamp": "2025-12-15T14:57:57.496900+00:00", "meta": {"OBJECT_NAME": "WORLDVIEW-2 (WV-2)", "OBJECT_ID": "2009-055A", "EPOCH": "2025-12-14T21:29:24.649152", "MEAN_MOTION": 14.37724771, "ECCENTRICITY": 0.00051211, "INCLINATION": 98.4787, "RA_OF_ASC_NODE": 59.9501, "ARG_OF_PERICENTER": 65.3427, "MEAN_ANOMALY": 294.8293, "EPHEMERIS_TYPE": 0, "CLASSIFICATION_TYPE": "U", "NORAD_CAT_ID": 35946, "ELEMENT_SET_NO": 999, "REV_AT_EPOCH": 84916, "BSTAR": 6.8401134e-05, "MEAN_MOTION_DOT": 1.62e-06, "MEAN_MOTION_DDOT": 0}, "tle": {"line1": "1 35946U 09055A   25348.89542418  .00000162  00000+0  68401-4 0  9990", "line2": "2 35946  98.4787  59.9501 0005121  65.3427 294.8293 14.37724771849165"}}, "geometry": {"type": "Point", "coordinates": [-117.37715850301939, 12.879480266775634]}}, {"type": "Feature", "properties": {"norad_id": 36036, "name": "SMOS", "group": "resource", "lat": -42.7044889336426, "lon": -13.245283373220666, "alt_km": 766.5704820197379, "timestamp": "2025-12-15T14:57:57.496910+00:00", "meta": {"OBJECT_NAME": "SMOS", "OBJECT_ID": "2009-059A", "EPOCH": "2025-12-14T17:55:02.589600", "MEAN_MOTION": 14.39742979, "ECCENTRICITY": 0.00011, "INCLINATION": 98.438, "RA_OF_ASC_NODE": 173.7653, "ARG_OF_PERICENTER": 84.0802, "MEAN_ANOMALY": 276.0512, "EPHEMERIS_TYPE": 0, "CLASSIFICATION_TYPE": "U", "NORAD_CAT_ID": 36036, "ELEMENT_SET_NO": 999, "REV_AT_EPOCH": 84691, "BSTAR": 0.00015675625, "MEAN_MOTION_DOT": 4.48e-06, "MEAN_MOTION_DDOT": 0}, "tle": {"line1": "1 36036U 09059A   25348.74655775  .00000448  00000+0  15676-3 0  9992", "line2": "2 36036  98.4380 173.7653 0001100  84.0802 276.0512 14.39742979846914"}}, "geometry": {"type": "Point", "coordinates": [-13.245283373220666, -42.7044889336426]}}, {"type": "Feature", "properties": {"norad_id": 36110, "name": "YAOGAN-7", "group": "resource", "lat": 78.6460113933072, "lon": -173.30034528376112, "alt_km": 645.2852424167831, "timestamp": "2025-12-15T14:57:57.496919+00:00", "meta": {"OBJECT_NAME": "YAOGAN-7", "OBJECT_ID": "2009-069A", "EPOCH": "2025-12-14T22:20:40.565184", "MEAN_MOTION": 14.7773545, "ECCENTRICITY": 0.00233353, "INCLINATION": 98.0299, "RA_OF_ASC_NODE": 230.6802, "ARG_OF_PERICENTER": 273.8152, "MEAN_ANOMALY": 86.039, "EPHEMERIS_TYPE": 0, "CLASSIFICATION_TYPE": "U", "NORAD_CAT_ID": 36110, "ELEMENT_SET_NO": 999, "REV_AT_EPOCH": 86241, "BSTAR": 0.0001002831, "MEAN_MOTION_DOT": 6.69e-06, "MEAN_MOTION_DDOT": 0}, "tle": {"line1": "1 36110U 09069A   25348.93102506  .00000669  00000+0  10028-3 0  9997", "line2": "2 36110  98.0299 230.6802 0023335 273.8152  86.0390 14.77735450862415"}}, "geometry": {"type": "Point", "coordinates": [-173.30034528376112, 78.6460113933072]}}, {"type": "Feature", "properties": {"norad_id": 36605, "name": "TANDEM-X", "group": "resource", "lat": 36.392758191517565, "lon": -10.568159646063055, "alt_km": 504.93578436098323, "timestamp": "2025-12-15T14:57:57.496929+00:00", "meta": {"OBJECT_NAME": "TANDEM-X", "OBJECT_ID": "2010-030A", "EPOCH": "2025-12-14T15:05:32.230464", "MEAN_MOTION": 15.19156095, "ECCENTRICITY": 0.00019257, "INCLINATION": 97.4454, "RA_OF_ASC_NODE": 353.9828, "ARG_OF_PERICENTER": 83.4847, "MEAN_ANOMALY": 276.6607, "EPHEMERIS_TYPE": 0, "CLASSIFICATION_TYPE": "U", "NORAD_CAT_ID": 36605, "ELEMENT_SET_NO": 999, "REV_AT_EPOCH": 85862, "BSTAR": 9.6223592e-05, "MEAN_MOTION_DOT": 1.954e-05, "MEAN_MOTION_DDOT": 0}, "tle": {"line1": "1 36605U 10030A   25348.62884526  .00001954  00000+0  96224-4 0  9992", "line2": "2 36605  97.4454 353.9828 0001925  83.4847 276.6607 15.19156095858629"}}, "geometry": {"type": "Point", "coordinates": [-10.568159646063055, 36.392758191517565]}}, {"type": "Feature", "properties": {"norad_id": 36795, "name": "CARTOSAT-2B", "group": "resource", "lat": 19.157934767948685, "lon": 35.83604372584453, "alt_km": 627.4796493724834, "timestamp": "2025-12-15T14:57:57.496938+00:00", "meta": {"OBJECT_NAME": "CARTOSAT-2B", "OBJECT_ID": "2010-035A", "EPOCH": "2025-12-14T22:38:19.748832", "MEAN_MOTION": 14.78727798, "ECCENTRICITY": 0.00130225, "INCLINATION": 97.7856, "RA_OF_ASC_NODE": 37.9023, "ARG_OF_PERICENTER": 69.8892, "MEAN_ANOMALY": 290.372, "EPHEMERIS_TYPE": 0, "CLASSIFICATION_TYPE": "U", "NORAD_CAT_ID": 36795, "ELEMENT_SET_NO": 999, "REV_AT_EPOCH": 83262, "BSTAR": 9.9384377e-05, "MEAN_MOTION_DOT": 6.8e-06, "MEAN_MOTION_DDOT": 0}, "tle": {"line1": "1 36795U 10035A   25348.94328413  .00000680  00000+0  99384-4 0  9995", "line2": "2 36795  97.7856  37.9023 0013022  69.8892 290.3720 14.78727798832622"}}, "geometry": {"type": "Point", "coordinates": [35.83604372584453, 19.157934767948685]}}, {"type": "Feature", "properties": {"norad_id": 36834, "name": "YAOGAN-10", "group": "resource", "lat": 18.88114490111641, "lon": -167.84986295458972, "alt_km": 614.91885505139, "timestamp": "2025-12-15T14:57:57.496952+00:00", "meta": {"OBJECT_NAME": "YAOGAN-10", "OBJECT_ID": "2010-038A", "EPOCH": "2025-12-14T23:50:16.600416", "MEAN_MOTION": 14.84616711, "ECCENTRICITY": 0.00013827, "INCLINATION": 97.9148, "RA_OF_ASC_NODE": 8.7973, "ARG_OF_PERICENTER": 81.3202, "MEAN_ANOMALY": 312.6424, "EPHEMERIS_TYPE": 0, "CLASSIFICATION_TYPE": "U", "NORAD_CAT_ID": 36834, "ELEMENT_SET_NO": 999, "REV_AT_EPOCH": 82987, "BSTAR": 0.0001656195, "MEAN_MOTION_DOT": 1.346e-05, "MEAN_MOTION_DDOT": 0}, "tle": {"line1": "1 36834U 10038A   25348.99324769  .00001346  00000+0  16562-3 0  9993", "line2": "2 36834  97.9148   8.7973 0001382  81.3202 312.6424 14.84616711829873"}}, "geometry": {"type": "Point", "coordinates": [-167.84986295458972, 18.88114490111641]}}]}